OBJECT_NAME,OBJECT_ID,EPOCH,MEAN_MOTION,ECCENTRICITY,INCLINATION,RA_OF_ASC_NODE,ARG_OF_PERICENTER,MEAN_ANOMALY,EPHEMERIS_TYPE,CLASSIFICATION_TYPE,NORAD_CAT_ID,ELEMENT_SET_NO,REV_AT_EPOCH,BSTAR,MEAN_MOTION_DOT,MEAN_MOTION_DDOT
GPS BIIR-5  (PRN 22),2000-040A,2026-07-13T05:19:31.309824,2.00557807,.01205424,54.8487,214.1281,302.7144,58.9948,0,U,26407,999,19047,0,.82E-6,0
GPS BIIR-8  (PRN 16),2003-005A,2026-07-13T01:06:34.820640,2.00559112,.01482365,54.8792,213.9414,53.1636,317.9078,0,U,27663,999,17183,0,.85E-6,0
GPS BIIR-11 (PRN 19),2004-009A,2026-07-13T06:29:38.340960,2.00553733,.01171213,54.8082,274.6324,174.2567,151.3848,0,U,28190,999,16346,0,-.6E-7,0
GPS BIIR-13 (PRN 02),2004-045A,2026-07-13T07:19:33.290688,2.00556928,.01701504,55.1194,323.8445,317.0130,98.7272,0,U,28474,999,15895,0,-.88E-6,0
GPS BIIRM-1 (PRN 17),2005-038A,2026-07-13T06:33:06.253920,2.00563793,.0128186,54.8570,272.1236,296.3927,60.6178,0,U,28874,999,15235,0,0,0
INMARSAT 4-F2 (SOUTHPAN/PRN 122),2005-044A,2026-07-13T00:27:20.150208,1.00270656,.00027758,5.1282,43.6566,60.2901,337.2817,0,U,28899,999,7578,0,-.266E-5,0
GPS BIIRM-2 (PRN 31),2006-042A,2026-07-12T14:36:27.516384,2.00568349,.01071,54.7127,150.3297,55.0722,81.1518,0,U,29486,999,14490,0,.19E-6,0
GPS BIIRM-3 (PRN 12),2006-052A,2026-07-12T20:18:55.984320,2.00559526,.00847744,54.9325,212.9890,90.9940,270.0357,0,U,29601,999,14392,0,.88E-6,0
GPS BIIRM-4 (PRN 15),2007-047A,2026-07-13T03:39:00.586368,2.00553960,.01677124,54.1142,78.9955,87.9420,274.0302,0,U,32260,999,13733,0,-.37E-6,0
COSMOS 2433 (720),2007-052A,2026-07-13T04:39:26.028864,2.13104146,.00034288,65.5610,315.0591,203.4008,156.5874,0,U,32275,999,14561,0,-.64E-6,0
COSMOS 2432 (719),2007-052B,2026-07-13T08:01:56.092800,2.13103091,.00074107,65.5770,315.1826,322.5345,89.1221,0,U,32276,999,14564,0,-.64E-6,0
GPS BIIRM-5 (PRN 29),2007-062A,2026-07-11T10:44:22.765344,2.00561362,.00360308,55.0124,273.1765,167.2486,169.8682,0,U,32384,999,13599,0,-.3E-7,0
COSMOS 2434 (721),2007-065A,2026-07-11T14:49:34.112352,2.13101327,.0001261,64.3201,191.0916,325.8599,154.5630,0,U,32393,999,14429,0,.105E-5,0
COSMOS 2436 (723),2007-065C,2026-07-11T06:58:53.453280,2.13100061,.00173239,64.3285,191.1750,353.6446,8.2320,0,U,32395,999,14424,0,.11E-5,0
GPS BIIRM-6 (PRN 07),2008-012A,2026-07-13T01:27:45.701568,2.00573034,.02116593,54.4999,148.8911,248.1311,109.5665,0,U,32711,999,13427,0,.12E-6,0
GPS BIIRM-8 (PRN 05),2009-043A,2026-07-13T06:39:07.636608,2.00552799,.00537374,56.2266,26.4280,84.2969,79.5944,0,U,35752,999,12388,0,-.61E-6,0
COSMOS 2456 (730),2009-070A,2026-07-13T07:38:16.075104,2.13103648,.00036689,65.0263,70.0814,340.1479,163.1185,0,U,36111,999,12898,0,-.12E-6,0
COSMOS 2457 (733),2009-070B,2026-07-13T04:41:57.056928,2.13101160,.00040578,65.0119,69.9289,121.6317,54.8708,0,U,36112,999,12898,0,-.12E-6,0
COSMOS 2460 (732),2010-007C,2026-07-12T23:00:38.781216,2.13101655,.00018065,65.4044,313.5954,142.3803,214.2494,0,U,36402,999,12727,0,-.63E-6,0
GPS BIIF-1  (PRN 25),2010-022A,2026-07-11T08:58:04.450368,2.00563533,.0126647,54.2688,207.5878,66.1538,283.0764,0,U,36585,999,11807,0,.105E-5,0
BEIDOU-2 IGSO-1 (C06),2010-036A,2026-07-12T21:21:01.985184,1.00264571,.0059161,54.3059,162.7278,225.3005,330.1612,0,U,36828,999,5835,0,-.103E-5,0
BEIDOU-2 G4 (C04),2010-057A,2026-07-13T08:16:54.713280,1.00269815,.00056488,3.7085,68.7785,184.7406,321.8609,0,U,37210,999,5755,0,-.12E-5,0
BEIDOU-2 IGSO-2 (C07),2010-068A,2026-07-12T16:24:31.809600,1.00274134,.00571217,47.5013,271.5143,213.7768,159.7282,0,U,37256,999,5705,0,-.189E-5,0
BEIDOU-2 IGSO-3 (C08),2011-013A,2026-07-12T12:18:07.725024,1.00260977,.0035266,62.4426,39.9128,183.3051,358.3524,0,U,37384,999,5591,0,-.165E-5,0
GSAT-8 (GAGAN/PRN 127),2011-022A,2026-07-13T05:10:15.125376,1.00272478,.00027424,2.1959,81.5069,165.3995,176.8323,0,U,37605,999,5347,0,.8E-6,0
BEIDOU-2 IGSO-4 (C09),2011-038A,2026-07-12T21:52:21.720000,1.00279714,.01603423,54.6038,165.4445,231.4539,316.2369,0,U,37763,999,5490,0,-.17E-6,0
GSAT0101 (GALILEO-PFM),2011-060A,2026-07-11T11:38:20.173344,1.70475532,.00023353,56.9857,341.1030,61.2388,298.7767,0,U,37846,999,9153,0,-.86E-6,0
GSAT0102 (GALILEO-FM2),2011-060B,2026-07-12T00:05:18.617280,1.70475812,.00023056,56.9863,341.0894,10.3981,353.6194,0,U,37847,999,9155,0,-.88E-6,0
COSMOS 2476 (744),2011-064A,2026-07-12T13:14:19.300128,2.13103818,.00221753,65.2838,72.0157,236.1448,307.3113,0,U,37867,999,11430,0,-.14E-6,0
COSMOS 2477 (745),2011-064B,2026-07-13T06:02:00.539232,2.13102976,.0019164,65.2909,72.0718,236.9325,303.6378,0,U,37868,999,11431,0,-.11E-6,0
COSMOS 2475 (743),2011-064C,2026-07-13T07:04:10.557696,2.13101804,.00248766,65.2976,72.0922,251.2845,277.4172,0,U,37869,999,11432,0,-.11E-6,0
